UNKNOWN                 
1 81406U          25292.35457271  .00007793  00000+0  31263-2 0  9995
2 81406  65.8109 277.1365 0865065 343.7573  13.7239 13.11710306526543
UNKNOWN                 
1 81427U          25303.61830650  .00001237  00000+0  74396-3 0  9998
2 81427  98.7505 187.1359 0084078 159.0346 201.4304 14.06831788545708
UNKNOWN                 
1 81438U          25302.35638006  .00003322  00000+0  49172-2 0  9991
2 81438 100.3068 172.1704 0042596 190.0675 169.9610 13.54327823585930
UNKNOWN                 
1 81439U          25306.48611063 -.00000166  00000+0 -30821-3 0  9991
2 81439  67.1595 219.6361 0606178 227.9331 126.8591 12.62594743256810
UNKNOWN                 
1 81449U          25304.22190411  .00071115  00000+0  67567-2 0  9997
2 81449  66.7945 114.9665 0029726 174.8517 185.2926 14.92713964627190
UNKNOWN                 
1 81478U          25305.28936409  .00004386  00000+0  15999-2 0  9999
2 81478  98.9467 216.1567 0147653 117.7864  11.4950 14.27676370617020
UNKNOWN                 
1 81488U          25305.39838042  .00000316  00000+0  50994-3 0  9990
2 81488 100.0043 177.4339 0045040 101.7140  77.5317 13.56493044591026
UNKNOWN                 
1 81497U          25306.45884449  .00004312  00000+0  39312-2 0  9990
2 81497 100.2993 197.2961 0027644 115.2192  64.3954 13.83713820210723
UNKNOWN                 
1 81499U          25305.98195307  .00003339  00000+0  92967-3 0  9991
2 81499  74.0488 297.1684 0002251 309.7396  50.3564 14.46757646476525
UNKNOWN                 
1 81535U          25305.51548118  .00001507  00000+0  63679-3 0  9996
2 81535  98.2041  31.1056 0234703 267.8845  89.5439 14.13228857381576
UNKNOWN                 
1 81536U          25306.58399493  .00000714  00000+0  46230-2 0  9997
2 81536 101.9554 167.1892 0035289 348.3474  39.5955 12.55795693546771
UNKNOWN                 
1 81537U          25304.94952647  .00000489  00000+0  31167-3 0  9995
2 81537  71.0396 195.7021 0078717 216.8421 142.7275 14.07046654614580
