CCSDS_OMM_VERS = 2.0
CREATION_DATE  = 
ORIGINATOR     = 

OBJECT_NAME    = UNKNOWN
OBJECT_ID      = 
CENTER_NAME    = EARTH
REF_FRAME      = TEME
TIME_SYSTEM    = UTC
MEAN_ELEMENT_THEORY = SGP/SGP4

EPOCH          = 2025-10-19T08:30:35.082144
MEAN_MOTION    = 13.11710306
ECCENTRICITY   = .0865065
INCLINATION    = 65.8109
RA_OF_ASC_NODE = 277.1365
ARG_OF_PERICENTER = 343.7573
MEAN_ANOMALY   = 13.7239

EPHEMERIS_TYPE = 0
CLASSIFICATION_TYPE = U
NORAD_CAT_ID   = 81406
ELEMENT_SET_NO = 999
REV_AT_EPOCH   = 52654
BSTAR          = .31263E-2
MEAN_MOTION_DOT = .7793E-4
MEAN_MOTION_DDOT = 0

CCSDS_OMM_VERS = 2.0
CREATION_DATE  = 
ORIGINATOR     = 

OBJECT_NAME    = UNKNOWN
OBJECT_ID      = 
CENTER_NAME    = EARTH
REF_FRAME      = TEME
TIME_SYSTEM    = UTC
MEAN_ELEMENT_THEORY = SGP/SGP4

EPOCH          = 2025-10-30T14:50:21.681600
MEAN_MOTION    = 14.06831788
ECCENTRICITY   = .0084078
INCLINATION    = 98.7505
RA_OF_ASC_NODE = 187.1359
ARG_OF_PERICENTER = 159.0346
MEAN_ANOMALY   = 201.4304

EPHEMERIS_TYPE = 0
CLASSIFICATION_TYPE = U
NORAD_CAT_ID   = 81427
ELEMENT_SET_NO = 999
REV_AT_EPOCH   = 54570
BSTAR          = .74396E-3
MEAN_MOTION_DOT = .1237E-4
MEAN_MOTION_DDOT = 0

CCSDS_OMM_VERS = 2.0
CREATION_DATE  = 
ORIGINATOR     = 

OBJECT_NAME    = UNKNOWN
OBJECT_ID      = 
CENTER_NAME    = EARTH
REF_FRAME      = TEME
TIME_SYSTEM    = UTC
MEAN_ELEMENT_THEORY = SGP/SGP4

EPOCH          = 2025-10-29T08:33:11.237184
MEAN_MOTION    = 13.54327823
ECCENTRICITY   = .0042596
INCLINATION    = 100.3068
RA_OF_ASC_NODE = 172.1704
ARG_OF_PERICENTER = 190.0675
MEAN_ANOMALY   = 169.9610

EPHEMERIS_TYPE = 0
CLASSIFICATION_TYPE = U
NORAD_CAT_ID   = 81438
ELEMENT_SET_NO = 999
REV_AT_EPOCH   = 58593
BSTAR          = .49172E-2
MEAN_MOTION_DOT = .3322E-4
MEAN_MOTION_DDOT = 0

CCSDS_OMM_VERS = 2.0
CREATION_DATE  = 
ORIGINATOR     = 

OBJECT_NAME    = UNKNOWN
OBJECT_ID      = 
CENTER_NAME    = EARTH
REF_FRAME      = TEME
TIME_SYSTEM    = UTC
MEAN_ELEMENT_THEORY = SGP/SGP4

EPOCH          = 2025-11-02T11:39:59.958432
MEAN_MOTION    = 12.62594743
ECCENTRICITY   = .0606178
INCLINATION    = 67.1595
RA_OF_ASC_NODE = 219.6361
ARG_OF_PERICENTER = 227.9331
MEAN_ANOMALY   = 126.8591

EPHEMERIS_TYPE = 0
CLASSIFICATION_TYPE = U
NORAD_CAT_ID   = 81439
ELEMENT_SET_NO = 999
REV_AT_EPOCH   = 25681
BSTAR          = -.30821E-3
MEAN_MOTION_DOT = -.166E-5
MEAN_MOTION_DDOT = 0

CCSDS_OMM_VERS = 2.0
CREATION_DATE  = 
ORIGINATOR     = 

OBJECT_NAME    = UNKNOWN
OBJECT_ID      = 
CENTER_NAME    = EARTH
REF_FRAME      = TEME
TIME_SYSTEM    = UTC
MEAN_ELEMENT_THEORY = SGP/SGP4

EPOCH          = 2025-10-31T05:19:32.515104
MEAN_MOTION    = 14.92713964
ECCENTRICITY   = .0029726
INCLINATION    = 66.7945
RA_OF_ASC_NODE = 114.9665
ARG_OF_PERICENTER = 174.8517
MEAN_ANOMALY   = 185.2926

EPHEMERIS_TYPE = 0
CLASSIFICATION_TYPE = U
NORAD_CAT_ID   = 81449
ELEMENT_SET_NO = 999
REV_AT_EPOCH   = 62719
BSTAR          = .67567E-2
MEAN_MOTION_DOT = .71115E-3
MEAN_MOTION_DDOT = 0

CCSDS_OMM_VERS = 2.0
CREATION_DATE  = 
ORIGINATOR     = 

OBJECT_NAME    = UNKNOWN
OBJECT_ID      = 
CENTER_NAME    = EARTH
REF_FRAME      = TEME
TIME_SYSTEM    = UTC
MEAN_ELEMENT_THEORY = SGP/SGP4

EPOCH          = 2025-11-01T06:56:41.057376
MEAN_MOTION    = 14.27676370
ECCENTRICITY   = .0147653
INCLINATION    = 98.9467
RA_OF_ASC_NODE = 216.1567
ARG_OF_PERICENTER = 117.7864
MEAN_ANOMALY   = 11.4950

EPHEMERIS_TYPE = 0
CLASSIFICATION_TYPE = U
NORAD_CAT_ID   = 81478
ELEMENT_SET_NO = 999
REV_AT_EPOCH   = 61702
BSTAR          = .15999E-2
MEAN_MOTION_DOT = .4386E-4
MEAN_MOTION_DDOT = 0

CCSDS_OMM_VERS = 2.0
CREATION_DATE  = 
ORIGINATOR     = 

OBJECT_NAME    = UNKNOWN
OBJECT_ID      = 
CENTER_NAME    = EARTH
REF_FRAME      = TEME
TIME_SYSTEM    = UTC
MEAN_ELEMENT_THEORY = SGP/SGP4

EPOCH          = 2025-11-01T09:33:40.068288
MEAN_MOTION    = 13.56493044
ECCENTRICITY   = .004504
INCLINATION    = 100.0043
RA_OF_ASC_NODE = 177.4339
ARG_OF_PERICENTER = 101.7140
MEAN_ANOMALY   = 77.5317

EPHEMERIS_TYPE = 0
CLASSIFICATION_TYPE = U
NORAD_CAT_ID   = 81488
ELEMENT_SET_NO = 999
REV_AT_EPOCH   = 59102
BSTAR          = .50994E-3
MEAN_MOTION_DOT = .316E-5
MEAN_MOTION_DDOT = 0

CCSDS_OMM_VERS = 2.0
CREATION_DATE  = 
ORIGINATOR     = 

OBJECT_NAME    = UNKNOWN
OBJECT_ID      = 
CENTER_NAME    = EARTH
REF_FRAME      = TEME
TIME_SYSTEM    = UTC
MEAN_ELEMENT_THEORY = SGP/SGP4

EPOCH          = 2025-11-02T11:00:44.163936
MEAN_MOTION    = 13.83713820
ECCENTRICITY   = .0027644
INCLINATION    = 100.2993
RA_OF_ASC_NODE = 197.2961
ARG_OF_PERICENTER = 115.2192
MEAN_ANOMALY   = 64.3954

EPHEMERIS_TYPE = 0
CLASSIFICATION_TYPE = U
NORAD_CAT_ID   = 81497
ELEMENT_SET_NO = 999
REV_AT_EPOCH   = 21072
BSTAR          = .39312E-2
MEAN_MOTION_DOT = .4312E-4
MEAN_MOTION_DDOT = 0

CCSDS_OMM_VERS = 2.0
CREATION_DATE  = 
ORIGINATOR     = 

OBJECT_NAME    = UNKNOWN
OBJECT_ID      = 
CENTER_NAME    = EARTH
REF_FRAME      = TEME
TIME_SYSTEM    = UTC
MEAN_ELEMENT_THEORY = SGP/SGP4

EPOCH          = 2025-11-01T23:34:00.745248
MEAN_MOTION    = 14.46757646
ECCENTRICITY   = .0002251
INCLINATION    = 74.0488
RA_OF_ASC_NODE = 297.1684
ARG_OF_PERICENTER = 309.7396
MEAN_ANOMALY   = 50.3564

EPHEMERIS_TYPE = 0
CLASSIFICATION_TYPE = U
NORAD_CAT_ID   = 81499
ELEMENT_SET_NO = 999
REV_AT_EPOCH   = 47652
BSTAR          = .92967E-3
MEAN_MOTION_DOT = .3339E-4
MEAN_MOTION_DDOT = 0

CCSDS_OMM_VERS = 2.0
CREATION_DATE  = 
ORIGINATOR     = 

OBJECT_NAME    = UNKNOWN
OBJECT_ID      = 
CENTER_NAME    = EARTH
REF_FRAME      = TEME
TIME_SYSTEM    = UTC
MEAN_ELEMENT_THEORY = SGP/SGP4

EPOCH          = 2025-11-01T12:22:17.573952
MEAN_MOTION    = 14.13228857
ECCENTRICITY   = .0234703
INCLINATION    = 98.2041
RA_OF_ASC_NODE = 31.1056
ARG_OF_PERICENTER = 267.8845
MEAN_ANOMALY   = 89.5439

EPHEMERIS_TYPE = 0
CLASSIFICATION_TYPE = U
NORAD_CAT_ID   = 81535
ELEMENT_SET_NO = 999
REV_AT_EPOCH   = 38157
BSTAR          = .63679E-3
MEAN_MOTION_DOT = .1507E-4
MEAN_MOTION_DDOT = 0

CCSDS_OMM_VERS = 2.0
CREATION_DATE  = 
ORIGINATOR     = 

OBJECT_NAME    = UNKNOWN
OBJECT_ID      = 
CENTER_NAME    = EARTH
REF_FRAME      = TEME
TIME_SYSTEM    = UTC
MEAN_ELEMENT_THEORY = SGP/SGP4

EPOCH          = 2025-11-02T14:00:57.161952
MEAN_MOTION    = 12.55795693
ECCENTRICITY   = .0035289
INCLINATION    = 101.9554
RA_OF_ASC_NODE = 167.1892
ARG_OF_PERICENTER = 348.3474
MEAN_ANOMALY   = 39.5955

EPHEMERIS_TYPE = 0
CLASSIFICATION_TYPE = U
NORAD_CAT_ID   = 81536
ELEMENT_SET_NO = 999
REV_AT_EPOCH   = 54677
BSTAR          = .4623E-2
MEAN_MOTION_DOT = .714E-5
MEAN_MOTION_DDOT = 0

CCSDS_OMM_VERS = 2.0
CREATION_DATE  = 
ORIGINATOR     = 

OBJECT_NAME    = UNKNOWN
OBJECT_ID      = 
CENTER_NAME    = EARTH
REF_FRAME      = TEME
TIME_SYSTEM    = UTC
MEAN_ELEMENT_THEORY = SGP/SGP4

EPOCH          = 2025-10-31T22:47:19.087008
MEAN_MOTION    = 14.07046654
ECCENTRICITY   = .0078717
INCLINATION    = 71.0396
RA_OF_ASC_NODE = 195.7021
ARG_OF_PERICENTER = 216.8421
MEAN_ANOMALY   = 142.7275

EPHEMERIS_TYPE = 0
CLASSIFICATION_TYPE = U
NORAD_CAT_ID   = 81537
ELEMENT_SET_NO = 999
REV_AT_EPOCH   = 61458
BSTAR          = .31167E-3
MEAN_MOTION_DOT = .489E-5
MEAN_MOTION_DDOT = 0

